NORAD_CAT_ID,OBJECT_NAME,OBJECT_TYPE,EPOCH,MEAN_MOTION,ECCENTRICITY,INCLINATION,RA_OF_ASC_NODE,ARG_OF_PERICENTER,MEAN_ANOMALY,BSTAR,MEAN_MOTION_DOT,MEAN_MOTION_DDOT,TLE_LINE0,TLE_LINE1,TLE_LINE2,SEMIMAJOR_AXIS,PERIOD,APOGEE,PERIGEE,DECAYED
49757.0,STARLINK-3197,PAYLOAD,2023-11-25 04:40:19,15.08843966,0.0001761,53.2169,289.8168,108.5977,251.5207,0.00052351,8.054e-05,0.0,0 STARLINK-3197,1 49757U 21115AK  23329.19466711  .00008054  00000-0  52351-3 0  9992,2 49757  53.2169 289.8168 0001761 108.5977 251.5207 15.08843966109545,6917.868,95.437,540.952,538.515,0.0
49757.0,STARLINK-3197,PAYLOAD,2023-11-25 22:09:33,15.08855272,0.0001783,53.2173,286.5446,94.4796,265.64,0.00056758,8.76e-05,0.0,0 STARLINK-3197,1 49757U 21115AK  23329.92330255  .00008760  00000-0  56758-3 0  9995,2 49757  53.2173 286.5446 0001783  94.4796 265.6400 15.08855272109655,6917.834,95.437,540.932,538.465,0.0
49757.0,STARLINK-3197,PAYLOAD,2023-11-26 02:55:42,15.08874631,0.0001582,53.2163,285.6506,91.0528,269.0645,0.0010328,0.00016203,0.0,0 STARLINK-3197,1 49757U 21115AK  23330.12201783  .00016203  00000-0  10328-2 0  9995,2 49757  53.2163 285.6506 0001582  91.0528 269.0645 15.08874631110790,6917.775,95.435,540.734,538.545,0.0
49757.0,STARLINK-3197,PAYLOAD,2023-11-27 04:21:53,15.08822829,0.0001775,53.2166,280.8928,88.8077,271.3118,-0.00029873,-5.037e-05,0.0,0 STARLINK-3197,1 49757U 21115AK  23331.18187459 -.00005037  00000-0 -29873-3 0  9996,2 49757  53.2166 280.8928 0001775  88.8077 271.3118 15.08822829110956,6917.933,95.439,541.026,538.57,0.0
49757.0,STARLINK-3197,PAYLOAD,2023-11-27 05:57:17,15.08819156,0.0001886,53.2167,280.5921,103.5306,256.5897,0.00018029,2.581e-05,0.0,0 STARLINK-3197,1 49757U 21115AK  23331.24811920  .00002581  00000-0  18029-3 0  9990,2 49757  53.2167 280.5921 0001886 103.5306 256.5897 15.08819156109855,6917.944,95.439,541.114,538.504,0.0
49757.0,STARLINK-3197,PAYLOAD,2023-11-28 02:37:17,15.08850831,0.0001742,53.216,276.7288,103.2183,256.9003,0.00091372,0.00014288,0.0,0 STARLINK-3197,1 49757U 21115AK  23332.10923217  .00014288  00000-0  91372-3 0  9998,2 49757  53.2160 276.7288 0001742 103.2183 256.9003 15.08850831111099,6917.847,95.437,540.917,538.507,0.0
49757.0,STARLINK-3197,PAYLOAD,2023-11-28 04:12:40,15.08859078,0.0001876,53.2172,276.4328,91.9031,268.2176,0.0011882,0.00018683,0.0,0 STARLINK-3197,1 49757U 21115AK  23332.17547227  .00018683  00000-0  11882-2 0  9998,2 49757  53.2172 276.4328 0001876  91.9031 268.2176 15.08859078109992,6917.822,95.436,540.985,538.389,0.0
49757.0,STARLINK-3197,PAYLOAD,2023-11-28 20:06:32,15.08855205,0.0001874,53.2161,273.4591,107.2295,252.8902,0.00065637,0.00010178,0.0,0 STARLINK-3197,1 49757U 21115AK  23332.83787096  .00010178  00000-0  65637-3 0  9990,2 49757  53.2161 273.4591 0001874 107.2295 252.8902 15.08855205111201,6917.834,95.437,540.995,538.403,0.0
49757.0,STARLINK-3197,PAYLOAD,2023-11-29 05:38:50,15.08860804,0.0001842,53.2167,271.674,117.7318,242.3861,0.0013629,0.00021482,0.0,0 STARLINK-3197,1 49757U 21115AK  23333.23530805  .00021482  00000-0  13629-2 0  9992,2 49757  53.2167 271.6740 0001842 117.7318 242.3861 15.08860804110152,6917.817,95.436,540.956,538.408,0.0
49757.0,STARLINK-3197,PAYLOAD,2023-11-30 02:18:51,15.08853599,0.0002118,53.2177,267.8099,111.3268,248.7951,0.0012162,0.00019128,0.0,0 STARLINK-3197,1 49757U 21115AK  23334.09643142  .00019128  00000-0  12162-2 0  9991,2 49757  53.2177 267.8099 0002118 111.3268 248.7951 15.08853599111398,6917.839,95.437,541.169,538.239,0.0
49757.0,STARLINK-3197,PAYLOAD,2023-12-01 05:20:25,15.08847521,0.0001795,53.2161,262.7531,121.1414,238.9754,0.0010153,0.00015911,0.0,0 STARLINK-3197,1 49757U 21115AK  23335.22251379  .00015911  00000-0  10153-2 0  9998,2 49757  53.2161 262.7531 0001795 121.1414 238.9754 15.08847521111567,6917.857,95.437,540.964,538.481,0.0
49757.0,STARLINK-3197,PAYLOAD,2023-12-01 22:49:38,15.08865653,0.0001714,53.2163,259.4809,119.9648,240.1514,0.00082582,0.00012889,0.0,0 STARLINK-3197,1 49757U 21115AK  23335.95114500  .00012889  00000-0  82582-3 0  9999,2 49757  53.2163 259.4809 0001714 119.9648 240.1514 15.08865653110569,6917.802,95.436,540.853,538.481,0.0
49757.0,STARLINK-3197,PAYLOAD,2023-12-02 00:25:01,15.08870298,0.0001781,53.2167,259.1823,112.1207,247.9974,0.0014472,0.00022838,0.0,0 STARLINK-3197,1 49757U 21115AK  23336.01738401  .00022838  00000-0  14472-2 0  9996,2 49757  53.2167 259.1823 0001781 112.1207 247.9974 15.08870298110573,6917.788,95.436,540.885,538.421,0.0
49757.0,STARLINK-3197,PAYLOAD,2023-12-02 22:40:25,15.0885577,0.000201,53.2158,255.0201,140.0718,220.0423,0.00016938,2.41e-05,0.0,0 STARLINK-3197,1 49757U 21115AK  23336.94473608  .00002410  00000-0  16938-3 0  9997,2 49757  53.2158 255.0201 0002010 140.0718 220.0423 15.08855770110716,6917.832,95.437,541.088,538.307,0.0
49757.0,STARLINK-3197,PAYLOAD,2023-12-03 03:26:35,15.0876992,0.0001351,53.216,254.1289,92.4582,267.6564,-0.0021357,-0.00034052,0.0,0 STARLINK-3197,1 49757U 21115AK  23337.14346654 -.00034052  00000-0 -21357-2 0  9999,2 49757  53.2160 254.1289 0001351  92.4582 267.6564 15.08769920111851,6918.095,95.442,540.894,539.025,0.0
49757.0,STARLINK-3197,PAYLOAD,2023-12-03 05:01:59,15.08763654,0.0001405,53.2161,253.8334,87.1567,272.9586,-0.0017783,-0.00028419,0.0,0 STARLINK-3197,1 49757U 21115AK  23337.20971184 -.00028419  00000-0 -17783-2 0  9996,2 49757  53.2161 253.8334 0001405  87.1567 272.9586 15.08763654110752,6918.114,95.442,540.951,539.007,0.0
49757.0,STARLINK-3197,PAYLOAD,2023-12-04 03:17:24,15.08821805,0.0001534,53.2157,249.6702,109.5,250.6158,0.001137,0.00017845,0.0,0 STARLINK-3197,1 49757U 21115AK  23338.13709480  .00017845  00000-0  11370-2 0  9992,2 49757  53.2157 249.6702 0001534 109.5000 250.6158 15.08821805112004,6917.936,95.439,540.862,538.74,0.0
49757.0,STARLINK-3197,PAYLOAD,2023-12-04 16:00:29,15.08852206,0.0001458,53.2147,247.2938,104.7441,255.3713,0.0013908,0.00021923,0.0,0 STARLINK-3197,1 49757U 21115AK  23338.66701189  .00021923  00000-0  13908-2 0  9999,2 49757  53.2147 247.2938 0001458 104.7441 255.3713 15.08852206112085,6917.843,95.437,540.717,538.699,0.0
49757.0,STARLINK-3197,PAYLOAD,2023-12-05 03:08:10,15.08898088,0.0001409,53.2144,245.2136,103.2047,256.9102,0.0021325,0.00033868,0.0,0 STARLINK-3197,1 49757U 21115AK  23339.13067683  .00033868  00000-0  21325-2 0  9999,2 49757  53.2144 245.2136 0001409 103.2047 256.9102 15.08898088112157,6917.703,95.434,540.543,538.593,0.0
49757.0,STARLINK-3197,PAYLOAD,2023-12-05 17:26:38,15.08862596,0.0001516,53.2146,242.5336,106.8628,253.253,0.0010626,0.00016674,0.0,0 STARLINK-3197,1 49757U 21115AK  23339.72683588  .00016674  00000-0  10626-2 0  9990,2 49757  53.2146 242.5336 0001516 106.8628 253.2530 15.08862596112244,6917.811,95.436,540.725,538.628,0.0
49757.0,STARLINK-3197,PAYLOAD,2023-12-05 20:37:24,15.08849708,0.0001338,53.2148,241.9387,102.619,257.4952,0.00066174,0.00010262,0.0,0 STARLINK-3197,1 49757U 21115AK  23339.85931646  .00010262  00000-0  66174-3 0  9992,2 49757  53.2148 241.9387 0001338 102.6190 257.4952 15.08849708111158,6917.851,95.437,540.641,538.79,0.0
49757.0,STARLINK-3197,PAYLOAD,2023-12-06 02:58:57,15.08853905,0.0001366,53.2148,240.7502,94.072,266.0428,0.00043475,6.64e-05,0.0,0 STARLINK-3197,1 49757U 21115AK  23340.12427580  .00006640  00000-0  43475-3 0  9995,2 49757  53.2148 240.7502 0001366  94.0720 266.0428 15.08853905112304,6917.838,95.437,540.648,538.758,0.0
49757.0,STARLINK-3197,PAYLOAD,2023-12-06 22:03:35,15.08843895,0.0001645,53.2154,237.1797,115.7125,244.4038,0.00086455,0.000135,0.0,0 STARLINK-3197,1 49757U 21115AK  23340.91915835  .00013500  00000-0  86455-3 0  9995,2 49757  53.2154 237.1797 0001645 115.7125 244.4038 15.08843895111311,6917.868,95.437,540.871,538.595,0.0
49757.0,STARLINK-3197,PAYLOAD,2023-12-06 23:38:58,15.08844215,0.0001587,53.2155,236.8807,117.975,242.1403,0.00082351,0.00012844,0.0,0 STARLINK-3197,1 49757U 21115AK  23340.98539777  .00012844  00000-0  82351-3 0  9990,2 49757  53.2155 236.8807 0001587 117.9750 242.1403 15.08844215112435,6917.868,95.437,540.83,538.635,0.0
49757.0,STARLINK-3197,PAYLOAD,2023-12-07 17:08:13,15.08838006,0.000158,53.215,233.6125,82.6512,277.466,0.00021108,3.073e-05,0.0,0 STARLINK-3197,1 49757U 21115AK  23341.71404227  .00003073  00000-0  21108-3 0  9990,2 49757  53.2150 233.6125 0001580  82.6512 277.4660 15.08838006112544,6917.886,95.438,540.845,538.658,0.0
49757.0,STARLINK-3197,PAYLOAD,2023-12-08 02:40:31,15.0883984,0.0001439,53.2151,231.8281,96.0404,264.0752,0.00015082,2.113e-05,0.0,0 STARLINK-3197,1 49757U 21115AK  23342.11148141  .00002113  00000-0  15082-3 0  9993,2 49757  53.2151 231.8281 0001439  96.0404 264.0752 15.08839840111494,6917.881,95.438,540.741,538.75,0.0
49757.0,STARLINK-3197,PAYLOAD,2023-12-09 02:31:18,15.08849435,0.0001567,53.2151,227.3696,79.8042,280.3127,0.00024295,3.582e-05,0.0,0 STARLINK-3197,1 49757U 21115AK  23343.10507698  .00003582  00000-0  24295-3 0  9996,2 49757  53.2151 227.3696 0001567  79.8042 280.3127 15.08849435112751,6917.852,95.437,540.801,538.633,0.0
49757.0,STARLINK-3197,PAYLOAD,2023-12-10 19:51:20,15.08837927,0.0001407,53.215,219.636,95.6625,264.4527,-1.674e-05,-5.54e-06,0.0,0 STARLINK-3197,1 49757U 21115AK  23344.82731865 -.00000554  00000-0 -16740-4 0  9996,2 49757  53.2150 219.6360 0001407  95.6625 264.4527 15.08837927113018,6917.887,95.438,540.725,538.778,0.0
49757.0,STARLINK-3197,PAYLOAD,2023-12-10 21:26:43,15.08837751,0.0001416,53.2149,219.3387,99.767,260.3482,-2.6219e-05,-7.05e-06,0.0,0 STARLINK-3197,1 49757U 21115AK  23344.89355794 -.00000705  00000-0 -26219-4 0  9996,2 49757  53.2149 219.3387 0001416  99.7670 260.3482 15.08837751111914,6917.887,95.438,540.732,538.773,0.0
49757.0,STARLINK-3197,PAYLOAD,2023-12-11 22:52:54,15.08835861,0.0001317,53.2153,214.5849,90.7827,269.3316,7.8072e-05,9.55e-06,0.0,0 STARLINK-3197,1 49757U 21115AK  23345.95340287  .00000955  00000-0  78072-4 0  9994,2 49757  53.2153 214.5849 0001317  90.7827 269.3316 15.08835861112077,6917.893,95.438,540.669,538.847,0.0
